NORAD_CAT_ID,OBJECT_NAME,OBJECT_TYPE,EPOCH,MEAN_MOTION,ECCENTRICITY,INCLINATION,RA_OF_ASC_NODE,ARG_OF_PERICENTER,MEAN_ANOMALY,BSTAR,MEAN_MOTION_DOT,MEAN_MOTION_DDOT,TLE_LINE0,TLE_LINE1,TLE_LINE2,SEMIMAJOR_AXIS,PERIOD,APOGEE,PERIGEE,DECAYED
55308.0,STARLINK-5292,PAYLOAD,2024-01-13 19:20:50,14.98334555,0.0002546,70.0001,185.9809,269.692,90.3947,2.2904e-05,1.8e-06,0.0,0 STARLINK-5292,1 55308U 23010AR  24013.80613760  .00000180  00000-0  22904-4 0  9998,2 55308  70.0001 185.9809 0002546 269.6920  90.3947 14.98334555 55731,6950.179,96.107,573.813,570.274,0.0
55308.0,STARLINK-5292,PAYLOAD,2024-01-14 14:34:27,14.98330713,0.0002631,70.0001,183.9612,271.1224,88.9633,4.7658e-05,4.76e-06,0.0,0 STARLINK-5292,1 55308U 23010AR  24014.60725787  .00000476  00000-0  47658-4 0  9991,2 55308  70.0001 183.9612 0002631 271.1224  88.9633 14.98330713 57044,6950.191,96.107,573.884,570.227,0.0
55308.0,STARLINK-5292,PAYLOAD,2024-01-14 19:22:51,14.98331856,0.000262,70.0001,183.4564,271.0636,89.0223,5.7563e-05,5.94e-06,0.0,0 STARLINK-5292,1 55308U 23010AR  24014.80753662  .00000594  00000-0  57563-4 0  9993,2 55308  70.0001 183.4564 0002620 271.0636  89.0223 14.98331856 55885,6950.187,96.107,573.873,570.231,0.0
55308.0,STARLINK-5292,PAYLOAD,2024-01-14 20:58:59,14.98333042,0.0002619,70.0002,183.2884,271.3124,88.7735,6.9966e-05,7.42e-06,0.0,0 STARLINK-5292,1 55308U 23010AR  24014.87429539  .00000742  00000-0  69966-4 0  9998,2 55308  70.0002 183.2884 0002619 271.3124  88.7735 14.98333042 57089,6950.183,96.107,573.869,570.228,0.0
55308.0,STARLINK-5292,PAYLOAD,2024-01-15 14:36:28,14.9833034,0.0002534,70.0005,181.4371,270.9545,89.1324,-5e-05,-6.89e-06,0.0,0 STARLINK-5292,1 55308U 23010AR  24015.60865954 -.00000689  00000-0 -50000-4 0  9996,2 55308  70.0005 181.4371 0002534 270.9545  89.1324 14.98330340 57190,6950.192,96.107,573.818,570.296,0.0
55308.0,STARLINK-5292,PAYLOAD,2024-01-15 17:48:44,14.98328699,0.0002561,70.0005,181.1006,270.907,89.1795,-6.8818e-05,-9.14e-06,0.0,0 STARLINK-5292,1 55308U 23010AR  24015.74218109 -.00000914  00000-0 -68818-4 0  9992,2 55308  70.0005 181.1006 0002561 270.9070  89.1795 14.98328699 56022,6950.197,96.107,573.842,570.282,0.0
55308.0,STARLINK-5292,PAYLOAD,2024-01-15 21:01:00,14.98329285,0.0002564,70.0006,180.7641,271.0866,89.0,-6.0264e-05,-8.12e-06,0.0,0 STARLINK-5292,1 55308U 23010AR  24015.87570051 -.00000812  00000-0 -60264-4 0  9997,2 55308  70.0006 180.7641 0002564 271.0866  89.0000 14.98329285 57235,6950.195,96.107,573.842,570.278,0.0
55308.0,STARLINK-5292,PAYLOAD,2024-01-16 14:38:28,14.9833356,0.00027,70.0004,178.9122,273.3796,86.7054,-1.4902e-05,-2.71e-06,0.0,0 STARLINK-5292,1 55308U 23010AR  24016.61005558 -.00000271  00000-0 -14902-4 0  9992,2 55308  70.0004 178.9122 0002700 273.3796  86.7054 14.98333560 57341,6950.182,96.107,573.923,570.17,0.0
55308.0,STARLINK-5292,PAYLOAD,2024-01-16 19:26:52,14.9833467,0.0002677,70.0004,178.4073,273.125,86.9602,1.2861e-06,-7.8e-07,0.0,0 STARLINK-5292,1 55308U 23010AR  24016.81033397 -.00000078  00000-0  12861-5 0  9993,2 55308  70.0004 178.4073 0002677 273.1250  86.9602 14.98334670 56182,6950.178,96.107,573.904,570.183,0.0
55308.0,STARLINK-5292,PAYLOAD,2024-01-16 21:03:00,14.98335371,0.0002671,70.0005,178.2391,272.7559,87.3294,8.9474e-06,1.4e-07,0.0,0 STARLINK-5292,1 55308U 23010AR  24016.87709310  .00000014  00000-0  89474-5 0  9997,2 55308  70.0005 178.2391 0002671 272.7559  87.3294 14.98335371 57389,6950.176,96.107,573.898,570.185,0.0
55308.0,STARLINK-5292,PAYLOAD,2024-01-17 11:28:13,14.98326589,0.0002924,70.0002,176.725,269.6866,90.3958,-9.7457e-06,-2.09e-06,0.0,0 STARLINK-5292,1 55308U 23010AR  24017.47793795 -.00000209  00000-0 -97457-5 0  9992,2 55308  70.0002 176.7250 0002924 269.6866  90.3958 14.98326589 56280,6950.203,96.107,574.101,570.036,0.0
55308.0,STARLINK-5292,PAYLOAD,2024-01-17 14:40:29,14.9832736,0.0002626,70.0007,176.3877,267.1186,92.9673,2.5002e-05,2.05e-06,0.0,0 STARLINK-5292,1 55308U 23010AR  24017.61145679  .00000205  00000-0  25002-4 0  9990,2 55308  70.0007 176.3877 0002626 267.1186  92.9673 14.98327360 57497,6950.201,96.107,573.891,570.241,0.0
55308.0,STARLINK-5292,PAYLOAD,2024-01-17 19:28:54,14.98327871,0.0002622,70.0008,175.883,267.5817,92.5042,2.8373e-05,2.46e-06,0.0,0 STARLINK-5292,1 55308U 23010AR  24017.81173663  .00000246  00000-0  28373-4 0  9995,2 55308  70.0008 175.8830 0002622 267.5817  92.5042 14.98327871 57529,6950.199,96.107,573.887,570.242,0.0
55308.0,STARLINK-5292,PAYLOAD,2024-01-18 11:30:14,14.98330717,0.0002791,70.0003,174.1989,274.6635,85.4205,-1.5848e-05,-2.82e-06,0.0,0 STARLINK-5292,1 55308U 23010AR  24018.47933642 -.00000282  00000-0 -15848-4 0  9994,2 55308  70.0003 174.1989 0002791 274.6635  85.4205 14.98330717 56439,6950.191,96.107,573.995,570.116,0.0
55308.0,STARLINK-5292,PAYLOAD,2024-01-18 14:42:30,14.98329235,0.0002884,70.0002,173.8624,271.507,88.5758,-4.4384e-05,-6.23e-06,0.0,0 STARLINK-5292,1 55308U 23010AR  24018.61285784 -.00000623  00000-0 -44384-4 0  9993,2 55308  70.0002 173.8624 0002884 271.5070  88.5758 14.98329235 57646,6950.195,96.107,574.065,570.056,0.0
55308.0,STARLINK-5292,PAYLOAD,2024-01-18 19:30:54,14.9833053,0.0002643,70.0009,173.3574,272.6643,87.4213,-1.0797e-05,-2.22e-06,0.0,0 STARLINK-5292,1 55308U 23010AR  24018.81313657 -.00000222  00000-0 -10797-4 0  9992,2 55308  70.0009 173.3574 0002643 272.6643  87.4213 14.98330530 57670,6950.191,96.107,573.893,570.219,0.0
55308.0,STARLINK-5292,PAYLOAD,2024-01-19 11:32:15,14.98333705,0.000276,70.0009,171.6761,263.3408,96.7437,3.6487e-05,3.42e-06,0.0,0 STARLINK-5292,1 55308U 23010AR  24019.48073123  .00000342  00000-0  36487-4 0  9992,2 55308  70.0009 171.6761 0002760 263.3408  96.7437 14.98333705 56582,6950.181,96.107,573.965,570.128,0.0
55308.0,STARLINK-5292,PAYLOAD,2024-01-19 14:44:31,14.98333605,0.0002764,70.0009,171.3393,263.0627,97.0218,3.4613e-05,3.2e-06,0.0,0 STARLINK-5292,1 55308U 23010AR  24019.61425096  .00000320  00000-0  34613-4 0  9992,2 55308  70.0009 171.3393 0002764 263.0627  97.0218 14.98333605 57798,6950.182,96.107,573.968,570.126,0.0
55308.0,STARLINK-5292,PAYLOAD,2024-01-19 19:32:55,14.98335283,0.0002829,70.0008,170.8343,267.0706,93.013,4.7226e-05,4.71e-06,0.0,0 STARLINK-5292,1 55308U 23010AR  24019.81452919  .00000471  00000-0  47226-4 0  9999,2 55308  70.0008 170.8343 0002829 267.0706  93.0130 14.98335283 57827,6950.177,96.107,574.008,570.075,0.0
55308.0,STARLINK-5292,PAYLOAD,2024-01-20 11:34:16,14.98327612,0.0002772,70.0011,169.1513,264.7974,95.2868,-6.9098e-06,-1.75e-06,0.0,0 STARLINK-5292,1 55308U 23010AR  24020.48213485 -.00000175  00000-0 -69098-5 0  9992,2 55308  70.0011 169.1513 0002772 264.7974  95.2868 14.98327612 56737,6950.2,96.107,573.992,570.139,0.0
55308.0,STARLINK-5292,PAYLOAD,2024-01-20 14:46:32,14.98326483,0.0002792,70.001,168.8146,264.5732,95.5108,-2.0745e-05,-3.4e-06,0.0,0 STARLINK-5292,1 55308U 23010AR  24020.61565609 -.00000340  00000-0 -20745-4 0  9994,2 55308  70.0010 168.8146 0002792 264.5732  95.5108 14.98326483 57945,6950.204,96.107,574.009,570.128,0.0
55308.0,STARLINK-5292,PAYLOAD,2024-01-20 19:34:56,14.98337315,0.0002917,70.0012,168.3098,267.1819,92.9006,-0.00020223,-2.506e-05,0.0,0 STARLINK-5292,1 55308U 23010AR  24020.81593368 -.00002506  00000-0 -20223-3 0  9995,2 55308  70.0012 168.3098 0002917 267.1819  92.9006 14.98337315 57979,6950.17,96.107,574.063,570.008,0.0
55308.0,STARLINK-5292,PAYLOAD,2024-01-21 13:12:25,14.98333506,0.0003032,70.0009,166.4575,271.5032,88.5779,-2.3686e-05,-3.76e-06,0.0,0 STARLINK-5292,1 55308U 23010AR  24021.55029158 -.00000376  00000-0 -23686-4 0  9998,2 55308  70.0009 166.4575 0003032 271.5032  88.5779 14.98333506 56895,6950.182,96.107,574.154,569.94,0.0
55308.0,STARLINK-5292,PAYLOAD,2024-01-21 19:36:56,14.98338022,0.0002848,70.001,165.7836,268.9874,91.0959,4.6656e-05,4.64e-06,0.0,0 STARLINK-5292,1 55308U 23010AR  24021.81732599  .00000464  00000-0  46656-4 0  9995,2 55308  70.0010 165.7836 0002848 268.9874  91.0959 14.98338022 58122,6950.168,96.106,574.012,570.054,0.0
55308.0,STARLINK-5292,PAYLOAD,2024-01-22 11:38:18,14.98326569,0.000247,70.0022,164.1029,258.1285,101.9598,5.8021e-05,5.99e-06,0.0,0 STARLINK-5292,1 55308U 23010AR  24022.48493180  .00000599  00000-0  58021-4 0  9997,2 55308  70.0022 164.1029 0002470 258.1285 101.9598 14.98326569 57032,6950.204,96.107,573.785,570.352,0.0
55308.0,STARLINK-5292,PAYLOAD,2024-01-22 19:38:58,14.98325297,0.0002593,70.0019,163.2611,260.3207,99.7659,2.0396e-05,1.5e-06,0.0,0 STARLINK-5292,1 55308U 23010AR  24022.81873437  .00000150  00000-0  20396-4 0  9998,2 55308  70.0019 163.2611 0002593 260.3207  99.7659 14.98325297 58276,6950.207,96.107,573.875,570.27,0.0
55308.0,STARLINK-5292,PAYLOAD,2024-01-23 11:40:18,14.98334887,0.0002698,70.0016,161.5779,261.7261,98.3592,2.4505e-06,-6.4e-07,0.0,0 STARLINK-5292,1 55308U 23010AR  24023.48632806 -.00000064  00000-0  24505-5 0  9997,2 55308  70.0016 161.5779 0002698 261.7261  98.3592 14.98334887 57185,6950.178,96.107,573.918,570.168,0.0
55308.0,STARLINK-5292,PAYLOAD,2024-01-23 18:04:50,14.9833495,0.0002719,70.0015,160.9045,261.406,98.6791,1.7745e-05,1.19e-06,0.0,0 STARLINK-5292,1 55308U 23010AR  24023.75336672  .00000119  00000-0  17745-4 0  9996,2 55308  70.0015 160.9045 0002719 261.4060  98.6791 14.98334950 58413,6950.178,96.107,573.932,570.153,0.0
55308.0,STARLINK-5292,PAYLOAD,2024-01-24 11:42:20,14.98324568,0.0002536,70.0027,159.0554,244.1733,115.9164,-1.3255e-05,-2.51e-06,0.0,0 STARLINK-5292,1 55308U 23010AR  24024.48773390 -.00000251  00000-0 -13255-4 0  9990,2 55308  70.0027 159.0554 0002536 244.1733 115.9164 14.98324568 57333,6950.21,96.107,573.837,570.312,0.0
55308.0,STARLINK-5292,PAYLOAD,2024-01-24 14:54:36,14.98325287,0.0002885,70.001,158.7165,259.1011,100.9823,-4.4961e-05,-6.29e-06,0.0,0 STARLINK-5292,1 55308U 23010AR  24024.62125562 -.00000629  00000-0 -44961-4 0  9995,2 55308  70.0010 158.7165 0002885 259.1011 100.9823 14.98325287 58540,6950.207,96.107,574.078,570.067,0.0
